NORAD_CAT_ID,OBJECT_NAME,OBJECT_TYPE,EPOCH,MEAN_MOTION,ECCENTRICITY,INCLINATION,RA_OF_ASC_NODE,ARG_OF_PERICENTER,MEAN_ANOMALY,BSTAR,MEAN_MOTION_DOT,MEAN_MOTION_DDOT,TLE_LINE0,TLE_LINE1,TLE_LINE2,SEMIMAJOR_AXIS,PERIOD,APOGEE,PERIGEE,DECAYED
49743.0,STARLINK-3239,PAYLOAD,2024-04-19 21:58:18,15.08856043,0.0001421,53.218,1.0771,68.8055,291.3089,0.00066624,0.00010336,0.0,0 STARLINK-3239,1 49743U 21115V   24110.91548983  .00010336  00000-0  66624-3 0  9992,2 49743  53.2180   1.0771 0001421  68.8055 291.3089 15.08856043131551,6917.831,95.437,540.679,538.713,0.0
49743.0,STARLINK-3239,PAYLOAD,2024-04-19 23:33:41,15.08868678,0.0001449,53.2186,0.7791,78.2401,281.8753,0.00093845,0.00014691,0.0,0 STARLINK-3239,1 49743U 21115V   24110.98172705  .00014691  00000-0  93845-3 0  9997,2 49743  53.2186   0.7791 0001449  78.2401 281.8753 15.08868678132678,6917.793,95.436,540.66,538.655,0.0
49743.0,STARLINK-3239,PAYLOAD,2024-04-20 20:13:41,15.08830899,0.000165,53.2189,356.9144,108.5493,251.5679,-0.0007076,-0.00011529,0.0,0 STARLINK-3239,1 49743U 21115V   24111.84284213 -.00011529  00000-0 -70760-3 0  9991,2 49743  53.2189 356.9144 0001650 108.5493 251.5679 15.08830899132801,6917.908,95.438,540.915,538.632,0.0
49743.0,STARLINK-3239,PAYLOAD,2024-04-20 21:49:04,15.08829791,0.0001648,53.2191,356.6171,110.1925,249.9245,-0.00090647,-0.00014682,0.0,0 STARLINK-3239,1 49743U 21115V   24111.90907963 -.00014682  00000-0 -90647-3 0  9991,2 49743  53.2191 356.6171 0001648 110.1925 249.9245 15.08829791131704,6917.912,95.438,540.917,538.637,0.0
49743.0,STARLINK-3239,PAYLOAD,2024-04-21 21:39:53,15.08823841,0.0001547,53.2183,352.1608,106.7465,253.3697,0.00037365,5.661e-05,0.0,0 STARLINK-3239,1 49743U 21115V   24112.90269886  .00005661  00000-0  37365-3 0  9990,2 49743  53.2183 352.1608 0001547 106.7465 253.3697 15.08823841131855,6917.93,95.439,540.865,538.725,0.0
49743.0,STARLINK-3239,PAYLOAD,2024-04-22 00:50:39,15.08838897,0.0001471,53.2184,351.5663,83.7367,276.3792,0.0013747,0.00021657,0.0,0 STARLINK-3239,1 49743U 21115V   24113.03518119  .00021657  00000-0  13747-2 0  9991,2 49743  53.2184 351.5663 0001471  83.7367 276.3792 15.08838897132984,6917.884,95.438,540.766,538.731,0.0
49743.0,STARLINK-3239,PAYLOAD,2024-04-22 19:55:17,15.08846477,0.0001275,53.2179,347.9967,92.7891,267.3247,0.0005974,9.234e-05,0.0,0 STARLINK-3239,1 49743U 21115V   24113.83006160  .00009234  00000-0  59740-3 0  9998,2 49743  53.2179 347.9967 0001275  92.7891 267.3247 15.08846477133101,6917.861,95.437,540.608,538.844,0.0
49743.0,STARLINK-3239,PAYLOAD,2024-04-22 21:30:40,15.08848059,0.0001578,53.2181,347.7016,139.3339,220.7771,0.00046351,7.098e-05,0.0,0 STARLINK-3239,1 49743U 21115V   24113.89629846  .00007098  00000-0  46351-3 0  9996,2 49743  53.2181 347.7016 0001578 139.3339 220.7771 15.08848059132009,6917.856,95.437,540.812,538.629,0.0
49743.0,STARLINK-3239,PAYLOAD,2024-04-23 00:41:26,15.08840899,0.0001003,53.2174,347.1057,99.5491,260.5615,0.00026084,3.866e-05,0.0,0 STARLINK-3239,1 49743U 21115V   24114.02878137  .00003866  00000-0  26084-3 0  9991,2 49743  53.2174 347.1057 0001003  99.5491 260.5615 15.08840899133137,6917.878,95.437,540.437,539.049,0.0
49743.0,STARLINK-3239,PAYLOAD,2024-04-23 21:21:27,15.08838561,0.000148,53.2181,343.2357,71.3866,288.7287,0.00018619,2.676e-05,0.0,0 STARLINK-3239,1 49743U 21115V   24114.88990701  .00002676  00000-0  18619-3 0  9990,2 49743  53.2181 343.2357 0001480  71.3866 288.7287 15.08838561133262,6917.885,95.438,540.774,538.726,0.0
49743.0,STARLINK-3239,PAYLOAD,2024-04-24 00:32:13,15.08846468,0.0001623,53.2184,342.6375,74.1826,285.9345,0.00032516,4.892e-05,0.0,0 STARLINK-3239,1 49743U 21115V   24115.02238378  .00004892  00000-0  32516-3 0  9996,2 49743  53.2184 342.6375 0001623  74.1826 285.9345 15.08846468133285,6917.861,95.437,540.848,538.603,0.0
49743.0,STARLINK-3239,PAYLOAD,2024-04-24 21:12:14,15.088467,0.0001502,53.2193,338.7665,97.4698,262.6465,0.00024904,3.678e-05,0.0,0 STARLINK-3239,1 49743U 21115V   24115.88350267  .00003678  00000-0  24904-3 0  9995,2 49743  53.2193 338.7665 0001502  97.4698 262.6465 15.08846700133413,6917.86,95.437,540.764,538.686,0.0
49743.0,STARLINK-3239,PAYLOAD,2024-04-25 00:23:00,15.08845709,0.0001626,53.2195,338.1758,113.6516,246.4647,0.00022978,3.371e-05,0.0,0 STARLINK-3239,1 49743U 21115V   24116.01598273  .00003371  00000-0  22978-3 0  9991,2 49743  53.2195 338.1758 0001626 113.6516 246.4647 15.08845709132328,6917.863,95.437,540.853,538.603,0.0
49743.0,STARLINK-3239,PAYLOAD,2024-04-25 21:03:01,15.08843944,0.0001291,53.2177,334.3089,115.3074,244.8052,6.5058e-05,7.48e-06,0.0,0 STARLINK-3239,1 49743U 21115V   24116.87710132  .00000748  00000-0  65058-4 0  9997,2 49743  53.2177 334.3089 0001291 115.3074 244.8052 15.08843944133567,6917.868,95.437,540.626,538.84,0.0
49743.0,STARLINK-3239,PAYLOAD,2024-04-26 00:13:47,15.08842499,0.0001448,53.2181,333.7164,121.3411,238.7723,4.6813e-05,4.57e-06,0.0,0 STARLINK-3239,1 49743U 21115V   24117.00958235  .00000457  00000-0  46813-4 0  9996,2 49743  53.2181 333.7164 0001448 121.3411 238.7723 15.08842499132475,6917.873,95.437,540.739,538.736,0.0
49743.0,STARLINK-3239,PAYLOAD,2024-04-26 19:18:25,15.08844432,0.0001205,53.218,330.1486,100.9218,259.191,8.7509e-05,1.105e-05,0.0,0 STARLINK-3239,1 49743U 21115V   24117.80446091  .00001105  00000-0  87509-4 0  9994,2 49743  53.2180 330.1486 0001205 100.9218 259.1910 15.08844432132598,6917.867,95.437,540.565,538.898,0.0
49743.0,STARLINK-3239,PAYLOAD,2024-04-27 20:44:36,15.08835607,0.0001218,53.2183,325.3965,110.8504,249.2618,1.014e-05,-1.26e-06,0.0,0 STARLINK-3239,1 49743U 21115V   24118.86430745 -.00000126  00000-0  10140-4 0  9990,2 49743  53.2183 325.3965 0001218 110.8504 249.2618 15.08835607133861,6917.894,95.438,540.601,538.916,0.0
49743.0,STARLINK-3239,PAYLOAD,2024-04-28 14:13:50,15.0883411,0.000165,53.22,322.1307,121.9701,238.1451,-1.3293e-05,-5e-06,0.0,0 STARLINK-3239,1 49743U 21115V   24119.59295099 -.00000500  00000-0 -13293-4 0  9991,2 49743  53.2200 322.1307 0001650 121.9701 238.1451 15.08834110132867,6917.898,95.438,540.905,538.622,0.0
49743.0,STARLINK-3239,PAYLOAD,2024-04-28 20:35:23,15.08833943,0.0001718,53.22,320.9424,126.3314,233.7837,-2.0749e-06,-3.21e-06,0.0,0 STARLINK-3239,1 49743U 21115V   24119.85791274 -.00000321  00000-0 -20749-5 0  9992,2 49743  53.2200 320.9424 0001718 126.3314 233.7837 15.08833943132904,6917.899,95.438,540.952,538.575,0.0
49743.0,STARLINK-3239,PAYLOAD,2024-04-29 06:07:41,15.08845316,0.0001431,53.2202,319.1559,88.5754,271.5402,7.4116e-05,8.92e-06,0.0,0 STARLINK-3239,1 49743U 21115V   24120.25534395  .00000892  00000-0  74116-4 0  9994,2 49743  53.2202 319.1559 0001431  88.5754 271.5402 15.08845316134079,6917.864,95.437,540.719,538.739,0.0
49743.0,STARLINK-3239,PAYLOAD,2024-04-29 20:26:10,15.08831744,0.0001249,53.2187,316.4768,95.1832,264.9303,6.1912e-05,6.97e-06,0.0,0 STARLINK-3239,1 49743U 21115V   24120.85151468  .00000697  00000-0  61912-4 0  9999,2 49743  53.2187 316.4768 0001249  95.1832 264.9303 15.08831744134167,6917.906,95.438,540.635,538.907,0.0
49743.0,STARLINK-3239,PAYLOAD,2024-04-29 22:01:33,15.08833571,0.0001349,53.2185,316.1792,95.0684,265.0463,7.6057e-05,9.23e-06,0.0,0 STARLINK-3239,1 49743U 21115V   24120.91775367  .00000923  00000-0  76057-4 0  9994,2 49743  53.2185 316.1792 0001349  95.0684 265.0463 15.08833571133061,6917.9,95.438,540.698,538.832,0.0
49743.0,STARLINK-3239,PAYLOAD,2024-04-30 05:58:29,15.08842638,0.0001428,53.2193,314.6947,96.5234,263.5921,0.00012852,1.758e-05,0.0,0 STARLINK-3239,1 49743U 21115V   24121.24894729  .00001758  00000-0  12852-3 0  9994,2 49743  53.2193 314.6947 0001428  96.5234 263.5921 15.08842638134225,6917.872,95.437,540.725,538.749,0.0
49743.0,STARLINK-3239,PAYLOAD,2024-04-30 20:16:57,15.08838635,0.0001221,53.2187,312.0174,89.3602,270.753,8.4077e-05,1.05e-05,0.0,0 STARLINK-3239,1 49743U 21115V   24121.84511247  .00001050  00000-0  84077-4 0  9995,2 49743  53.2187 312.0174 0001221  89.3602 270.7530 15.08838635134310,6917.885,95.438,540.594,538.905,0.0
49743.0,STARLINK-3239,PAYLOAD,2024-04-30 21:52:20,15.08839201,0.0001201,53.2184,311.7195,86.847,273.2659,8.6973e-05,1.097e-05,0.0,0 STARLINK-3239,1 49743U 21115V   24121.91135217  .00001097  00000-0  86973-4 0  9990,2 49743  53.2184 311.7195 0001201  86.8470 273.2659 15.08839201133217,6917.883,95.438,540.579,538.917,0.0
49743.0,STARLINK-3239,PAYLOAD,2024-05-01 12:10:48,15.08847448,0.000134,53.2187,309.0434,82.0617,278.0527,0.00017289,2.465e-05,0.0,0 STARLINK-3239,1 49743U 21115V   24122.50750209  .00002465  00000-0  17289-3 0  9993,2 49743  53.2187 309.0434 0001340  82.0617 278.0527 15.08847448134413,6917.858,95.437,540.65,538.796,0.0
49743.0,STARLINK-3239,PAYLOAD,2024-05-01 18:32:21,15.08839377,0.0001319,53.2189,307.8542,82.3093,277.8049,0.0001018,1.333e-05,0.0,0 STARLINK-3239,1 49743U 21115V   24122.77246943  .00001333  00000-0  10180-3 0  9993,2 49743  53.2189 307.8542 0001319  82.3093 277.8049 15.08839377134450,6917.882,95.438,540.66,538.835,0.0
49743.0,STARLINK-3239,PAYLOAD,2024-05-02 05:40:02,15.08846102,0.000124,53.2191,305.7731,86.6293,273.4841,5.3144e-05,5.58e-06,0.0,0 STARLINK-3239,1 49743U 21115V   24123.23614485  .00000558  00000-0  53144-4 0  9991,2 49743  53.2191 305.7731 0001240  86.6293 273.4841 15.08846102133413,6917.862,95.437,540.585,538.869,0.0
49743.0,STARLINK-3239,PAYLOAD,2024-05-02 21:33:54,15.0884118,0.0001323,53.2183,302.7962,95.3444,264.7699,-1.3588e-05,-5.04e-06,0.0,0 STARLINK-3239,1 49743U 21115V   24123.89854866 -.00000504  00000-0 -13588-4 0  9993,2 49743  53.2183 302.7962 0001323  95.3444 264.7699 15.08841180134623,6917.877,95.437,540.657,538.827,0.0
49743.0,STARLINK-3239,PAYLOAD,2024-05-03 15:03:08,15.08843885,0.0001546,53.2188,299.5286,82.1725,277.9443,4.1659e-05,3.75e-06,0.0,0 STARLINK-3239,1 49743U 21115V   24124.62718382  .00000375  00000-0  41659-4 0  9991,2 49743  53.2188 299.5286 0001546  82.1725 277.9443 15.08843885133629,6917.869,95.437,540.803,538.664,0.0
